[{"OBJECT_NAME":"STARLINK-3109","OBJECT_ID":"2021-082P","EPOCH":"2026-03-09T22:38:59.114400","MEAN_MOTION":14.97507048,"ECCENTRICITY":0.00027567,"INCLINATION":69.9979,"RA_OF_ASC_NODE":274.6045,"ARG_OF_PERICENTER":269.1542,"MEAN_ANOMALY":90.93,"EPHEMERIS_TYPE":0,"CLASSIFICATION_TYPE":"U","NORAD_CAT_ID":49143,"ELEMENT_SET_NO":999,"REV_AT_EPOCH":24760,"BSTAR":-0.00017275422,"MEAN_MOTION_DOT":-2.11e-5,"MEAN_MOTION_DDOT":0},{"OBJECT_NAME":"NOAA 16 DEB","OBJECT_ID":"2000-055HK","EPOCH":"2026-03-09T11:22:55.184448","MEAN_MOTION":14.96713123,"ECCENTRICITY":0.00044813,"INCLINATION":98.9091,"RA_OF_ASC_NODE":257.3123,"ARG_OF_PERICENTER":226.904,"MEAN_ANOMALY":133.1803,"EPHEMERIS_TYPE":0,"CLASSIFICATION_TYPE":"U","NORAD_CAT_ID":41307,"ELEMENT_SET_NO":999,"REV_AT_EPOCH":53055,"BSTAR":0.0073865996,"MEAN_MOTION_DOT":0.00085329,"MEAN_MOTION_DDOT":0}]
